#dP2025  1 31  0  0  0.00000000      96 __u+U IGS20 EXT  IAC
## 2351 432000.00000000   900.00000000 60706 0.0000000000000
+   53   G01G02G03G04G05G06G07G08G09G10G11G12G13G14G15G16G17
+        G18G19G20G21G22G23G24G25G26G27G28G29G30G31G32R01R02
+        R03R04R05R06R07R08R09R11R12R14R15R16R17R18R19R20R21
+        R22R24  0  0  0  0  0  0  0  0  0  0  0  0  0  0  0
+          0  0  0  0  0  0  0  0  0  0  0  0  0  0  0  0  0
++         8  7  8  7  7 11  6  7  6  7  7  7  7  7  9  6  7
++         7  6  7  9  9  7  9  8  7  7  7  7  8  7  7  9  8
++         9  7  7  9  8  8  9  9  8  9  8  7  8  9  9  9  8
++         8  8  0  0  0  0  0  0  0  0  0  0  0  0  0  0  0
++         0  0  0  0  0  0  0  0  0  0  0  0  0  0  0  0  0
%c M  cc GPS ccc cccc cccc cccc cccc ccccc ccccc ccccc ccccc
%c cc cc ccc ccc cccc cccc cccc cccc ccccc ccccc ccccc ccccc
%f  0.0000000  0.000000000  0.00000000000  0.000000000000000
%f  0.0000000  0.000000000  0.00000000000  0.000000000000000
%i    0    0    0    0      0      0      0      0         0
%i    0    0    0    0      0      0      0      0         0
/* IAC                                ULTRA-RAPID PREDICTION
/* S/V CLOCKS ARE ALIGNED TO GNSS TIME                      
/* G:C1WC2W R:C1PC2P E:C1XC5X C:C2IC6I J:C1CC2S             
/* PCV:IGS20_2350 OL/AL:FES2004  NONE     YN ORB:CoN CLK:CoN
*  2025 01 31 13 30  0.00000000
PG01 -18660.458631 -15399.653481 -10967.523014     89.771798
PG02 -18565.637341 -13286.837094 -13446.036086   -254.451144
PG03 -12066.822851 -21165.568070  10549.032678    655.949665
PG04 -11697.400590  -9723.571423  21802.793619    520.301830
PG05   5421.845050  25777.724276   2941.150738   -200.623676
PG06 -16350.060525   8190.296453  19382.919395   -156.439583
PG07 -25874.622374  -6789.340561  -1168.196977    -13.428929
PG08  -2421.223517 -17679.709866 -19665.512920    471.673824
PG09 -18456.422102   -363.992019  19032.450580    549.842210
PG10  11678.035764 -10796.868752 -20966.952889   -299.629983
PG11  -4341.902371  14493.367559  21870.091668   -749.677048
PG12   9796.646352  23158.769758   8328.559336   -567.603989
PG13  -8100.331112  19354.973658 -16371.644006    695.129801
PG14 -14257.334381   6895.372969 -21250.780054    590.169781
PG15   5139.855661  17344.771957 -19929.777000    258.071337
PG16   1520.093901 -25095.386194   7458.092732    -64.358138
PG17 -22416.228176  12137.632771  -7426.817095    448.346461
PG18  25826.708673   5111.429195  -4312.089967   -655.527298
PG19 -20016.549744  16973.554124   1822.489836    592.665014
PG20  -1671.786154  22084.261500  14841.126217    366.650871
PG21 -12666.016736 -15205.539992 -17859.258389    101.842540
PG22 -10819.119676  15437.190823 -18452.515596    -94.969662
PG23  15731.459404   5195.065736 -20768.125968    414.610452
PG24  16223.773412  14829.478116 -15653.711403   -457.732033
PG25  15855.896858  12643.008503  16923.721918    495.833235
PG26   6672.228475 -19248.373316  16650.373482    -71.091341
PG27   8841.989809 -21320.164215 -13053.596028    -32.257693
PG28  17862.250126  -8182.505045  17864.753401   -548.830132
PG29  18388.011728   1948.576680  19066.054547   -542.094425
PG30 -23423.228549   2626.784039 -12349.136391   -226.798625
PG31   9998.758471 -12439.775181  21032.464079   -216.614938
PG32  20391.929389 -16450.873592  -3396.498770   -531.063759
PR01  10890.071083   2253.775306 -22950.914575    113.124209
PR02  14984.148057 -14055.847591 -15020.700199    -37.904473
PR03  10479.769269 -23142.758734   1946.244094    115.985964
PR04    870.034038 -18955.345565  17071.530578    275.072829
PR05  -9483.831330  -4867.505253  23188.854643    144.642392
PR06  -1672.035281  20004.488905 -15701.571722   -131.243971
PR07 -10473.618981  23193.158187  -2077.860029     99.907312
PR08   -515.933657  18887.511127 -17091.954062     -6.267531
PR09 -12392.489127   1670.287922 -22230.100978    235.271909
PR11  10551.953165  21935.098299  -7593.275769     -5.140723
PR12  16934.745843  14920.332558  11915.162511     50.245692
PR14    508.383738 -16199.602534  19708.337945     27.673234
PR15 -11446.341601 -22050.512259   5808.711408     71.649941
PR16 -16906.189266 -15049.295088 -11795.973006     32.917126
PR17  10645.512631 -10192.882987 -20817.959456    162.223074
PR18  -7276.436740  -9840.924389 -22370.099206    184.696775
PR19 -20279.143984  -6122.750306 -14207.800617   -307.496553
PR20 -24404.040419   3274.431891   6763.108554   -125.197096
PR21 -12033.785422   9798.230456  20240.748926   -172.811021
PR22   8380.856159  10188.001425  21857.702059    -58.548237
PR24  24015.054985  -4828.180422  -7115.731753    -90.482932
*  2025 01 31 13 45  0.00000000
PG01 -17276.570362 -15145.075742 -13332.191248     89.795708
PG02 -16845.614686 -13160.861290 -15557.708215   -254.442740
PG03 -12191.807084 -22241.448215   7912.731995    655.955516
PG04  -9883.823150 -11431.830622  21858.074769    520.306905
PG05   5053.054018  25353.047036   5770.399702   -200.624752
PG06 -18351.795850   7538.825555  17795.227322   -156.462644
PG07 -25841.818708  -7039.296604   1641.166068    -13.429109
PG08   -846.861085 -19172.329700 -18301.632104    471.680212
PG09 -16986.173390  -2087.219904  20240.187111    549.855045
PG10  12383.768118  -8409.622048 -21665.404254   -299.643933
PG11  -6712.226674  13744.769664  21748.700041   -749.675482
PG12   9721.331063  24023.248361   5628.064970   -567.605946
PG13  -9574.199888  20263.274528 -14296.163896    695.130785
PG14 -14892.730882   4516.738663 -21473.922662    590.175966
PG15   3794.656520  18988.888273 -18645.431879    258.075266
PG16   1983.011531 -24100.754437  10088.272966    -64.349782
PG17 -21783.644026  11279.120490 -10038.721005    448.329978
PG18  26092.332041   5391.906260  -1468.136632   -655.525652
PG19 -20239.062980  16794.971107  -1066.876985    592.668957
PG20  -2606.092061  20545.692132  16788.258791    366.650577
PG21 -10520.682434 -14943.326378 -19282.098454    101.842945
PG22 -11330.076427  13242.001511 -19750.696491    -94.971233
PG23  16335.386496   7424.164212 -19614.845328    414.617036
PG24  14409.552741  14728.730494 -17439.614388   -457.727972
PG25  16211.980523  14502.810072  15054.021754    495.832606
PG26   7591.756756 -17400.970064  18233.559329    -71.105912
PG27   9938.275255 -22106.541004 -10641.477789    -32.257194
PG28  19721.857296  -7595.108860  16080.390664   -548.838253
PG29  16750.163123   3503.242618  20298.906903   -542.091298
PG30 -24610.965492   2049.093096  -9972.179393   -226.790893
PG31  12297.908561 -11717.681739  20254.757186   -216.614131
PG32  20174.594833 -15855.802459  -6200.168737   -531.057067
PR01   9784.892558   4869.510632 -23041.685811    113.125388
PR02  14020.389716 -12288.884320 -17322.742952    -37.904062
PR03  10344.965556 -23242.387750  -1279.393950    115.986637
PR04   1581.608669 -20784.297895  14724.558061    275.074453
PR05  -8275.697306  -7444.684307  22964.064302    144.642931
PR06  -2287.789972  21688.785360 -13189.311935   -131.243604
PR07 -10343.764969  23322.559960   1139.872282     99.908013
PR08  -1228.840449  20736.063118 -14766.685722     -6.267419
PR09 -14053.209316   -439.302305 -21288.238414    235.273735
PR11   9998.014479  20952.380606 -10544.229230     -5.143430
PR12  17786.153403  15898.581166   9066.055459     50.246096
PR14   1958.611823 -14140.206267  21148.632761     27.673263
PR15 -11017.252934 -21247.721566   8842.869711     71.649623
PR16 -17768.364463 -16002.973898  -8927.982281     32.917451
PR17  13099.685226 -10509.643719 -19201.834813    162.225937
PR18  -4474.063438 -10014.727107 -23014.599394    184.698502
PR19 -18367.211664  -6046.546868 -16632.896869   -307.498147
PR20 -25032.566818   3516.699060   3603.416064   -125.197585
PR21 -14408.038937  10098.303553  18462.401552   -172.813879
PR22   5642.662744  10306.029061  22668.034720    -58.549804
PR24  24686.951683  -5036.771329  -3998.763126    -90.484400
EOF
